[Satellite]
VERSION=1.1
NAME=IRIDIUM 124 [+]
NICKNAME=IRIDIUM 124 [+]
TLE1=1 42810U 17039H   20157.48103451  .00000068  00000-0  14190-4 0  9999
TLE2=2 42810  86.4484 130.9326 0001927  80.8343 279.3076 14.43282221157400
STATUS=0
